[{"OBJECT_NAME":"STARLINK-35067","OBJECT_ID":"2025-200H","EPOCH":"2026-03-09T17:26:36.614688","MEAN_MOTION":15.05647209,"ECCENTRICITY":0.00012821,"INCLINATION":97.6024,"RA_OF_ASC_NODE":139.7902,"ARG_OF_PERICENTER":92.5355,"MEAN_ANOMALY":267.6019,"EPHEMERIS_TYPE":0,"CLASSIFICATION_TYPE":"U","NORAD_CAT_ID":65527,"ELEMENT_SET_NO":999,"REV_AT_EPOCH":2913,"BSTAR":0.00019351418,"MEAN_MOTION_DOT":2.732e-5,"MEAN_MOTION_DDOT":0},{"OBJECT_NAME":"IRIDIUM 33 DEB","OBJECT_ID":"1997-051QE","EPOCH":"2026-03-07T09:35:18.798432","MEAN_MOTION":15.07266806,"ECCENTRICITY":0.0013423,"INCLINATION":86.3519,"RA_OF_ASC_NODE":312.8742,"ARG_OF_PERICENTER":171.2899,"MEAN_ANOMALY":188.8573,"EPHEMERIS_TYPE":0,"CLASSIFICATION_TYPE":"U","NORAD_CAT_ID":35484,"ELEMENT_SET_NO":999,"REV_AT_EPOCH":63287,"BSTAR":0.0040001,"MEAN_MOTION_DOT":0.00060878,"MEAN_MOTION_DDOT":0}]
